     2              NAVIGATION DATA                         RINEX VERSION / TYPE
CCRINEXN V1.6.0 UX  CDDIS               30-MAY-25 12:53     PGM / RUN BY / DATE 
IGS BROADCAST EPHEMERIS FILE                                COMMENT             
    0.1583D-07  0.2235D-07 -0.1192D-06 -0.1192D-06          ION ALPHA           
    0.1147D+06  0.1475D+06 -0.1311D+06 -0.4588D+06          ION BETA            
    0.372529029846D-08 0.124344978758D-13    61440     2369 DELTA-UTC: A0,A1,T,W
    18                                                      LEAP SECONDS        
                                                            END OF HEADER       
31 25  5 30  8  0  0.0-0.205533578992D-03 0.125055521494D-11 0.000000000000D+00
    0.930000000000D+02-0.750000000000D+00 0.497520723735D-08 0.235132759142D+01
   -0.106170773506D-06 0.105650615878D-01 0.722333788872D-05 0.515366521454D+04
    0.460800000000D+06-0.104308128357D-06-0.133046194489D+01-0.255182385445D-06
    0.953894696377D+00 0.238093750000D+03 0.821707221050D+00-0.790640076190D-08
    0.475019786481D-09 0.100000000000D+01 0.236800000000D+04 0.000000000000D+00
    0.200000000000D+01 0.000000000000D+00-0.130385160446D-07 0.930000000000D+02
    0.453618000000D+06 0.400000000000D+01 0.000000000000D+00 0.000000000000D+00
32 25  5 30  8  0  0.0-0.437777955085D-03 0.106865627458D-10 0.000000000000D+00
    0.740000000000D+02-0.902187500000D+02 0.423660504303D-08 0.514663022786D+00
   -0.488571822643D-05 0.856155273505D-02 0.936537981033D-05 0.515361578178D+04
    0.460800000000D+06-0.141561031342D-06-0.241057950553D+01 0.502914190292D-07
    0.965109404429D+00 0.203281250000D+03-0.205709953130D+01-0.785997025645D-08
    0.315013121561D-09 0.100000000000D+01 0.236800000000D+04 0.000000000000D+00
    0.200000000000D+01 0.000000000000D+00 0.931322574616D-09 0.740000000000D+02
    0.453618000000D+06 0.400000000000D+01 0.000000000000D+00 0.000000000000D+00
14 25  5 30  8 44 32.0 0.652667135000D-03 0.534328137292D-11 0.000000000000D+00
    0.103000000000D+03-0.750000000000D+00 0.513414242907D-08 0.281462372028D+01
   -0.372529029846D-07 0.586968567222D-02 0.767037272453D-05 0.515371157265D+04
    0.463472000000D+06-0.104308128357D-06-0.286991975762D+00-0.223517417908D-07
    0.943781884555D+00 0.224250000000D+03-0.280241788377D+01-0.803997775449D-08
   -0.474662628747D-09 0.100000000000D+01 0.236800000000D+04 0.000000000000D+00
    0.200000000000D+01 0.000000000000D+00-0.791624188423D-08 0.359000000000D+03
    0.460632000000D+06 0.400000000000D+01 0.000000000000D+00 0.000000000000D+00
29 25  5 30  9 59 28.0-0.500832218677D-03 0.454747350886D-11 0.000000000000D+00
    0.910000000000D+02 0.110843750000D+03 0.413838666613D-08 0.810711503057D+00
    0.552088022232D-05 0.329892418813D-02 0.944547355175D-05 0.515365081978D+04
    0.467968000000D+06 0.372529029846D-08 0.815656120814D+00-0.465661287308D-07
    0.966114777324D+00 0.196062500000D+03 0.266841334569D+01-0.776139472182D-08
   -0.371801201298D-09 0.100000000000D+01 0.236800000000D+04 0.000000000000D+00
    0.200000000000D+01 0.000000000000D+00-0.977888700000D-08 0.910000000000D+02
    0.460860000000D+06 0.400000000000D+01 0.000000000000D+00 0.000000000000D+00
13 25  5 30  9 59 44.0 0.701226294041D-03 0.113686837722D-12 0.000000000000D+00
    0.500000000000D+01-0.703750000000D+02 0.394980738247D-08 0.634853115723D+00
   -0.377185642719D-05 0.923144328408D-02 0.107325613499D-04 0.515368988228D+04
    0.467984000000D+06-0.154599547386D-06-0.225537863915D+01 0.465661287308D-07
    0.973876912397D+00 0.180656250000D+03 0.955618610745D+00-0.774889420112D-08
    0.383944564261D-09 0.100000000000D+01 0.236800000000D+04 0.000000000000D+00
    0.200000000000D+01 0.000000000000D+00-0.116415321827D-07 0.500000000000D+01
    0.463608000000D+06 0.400000000000D+01 0.000000000000D+00 0.000000000000D+00
16 25  5 30  9 59 44.0 0.269841402769D-04 0.852651282912D-11 0.000000000000D+00
    0.150000000000D+02-0.468750000000D+00 0.490377569051D-08 0.186837866350D+01
   -0.154599547386D-06 0.144387303153D-01 0.798329710960D-05 0.515373674583D+04
    0.467984000000D+06-0.359490513802D-06-0.219439948692D+00-0.197440385819D-06
    0.959778558744D+00 0.229312500000D+03 0.885446336474D+00-0.796711757671D-08
   -0.418588864478D-09 0.100000000000D+01 0.236800000000D+04 0.000000000000D+00
    0.200000000000D+01 0.000000000000D+00-0.102445483208D-07 0.150000000000D+02
    0.460818000000D+06 0.400000000000D+01 0.000000000000D+00 0.000000000000D+00
20 25  5 30  9 59 44.0 0.364241655916D-03-0.227373675443D-12 0.000000000000D+00
    0.260000000000D+02-0.728750000000D+02 0.463340728573D-08-0.914679530017D+00
   -0.371597707272D-05 0.346458400600D-02 0.179372727871D-05 0.515378069496D+04
    0.467984000000D+06 0.577419996262D-07 0.265350380104D+01 0.279396772385D-07
    0.958732000316D+00 0.344156250000D+03-0.225690632061D+01-0.843499420851D-08
   -0.148220459691D-09 0.100000000000D+01 0.236800000000D+04 0.000000000000D+00
    0.200000000000D+01 0.000000000000D+00-0.838190317154D-08 0.260000000000D+02
    0.467436000000D+06 0.400000000000D+01 0.000000000000D+00 0.000000000000D+00
26 25  5 30  9 59 44.0-0.261381734163D-03-0.164845914696D-10 0.000000000000D+00
    0.770000000000D+02-0.465625000000D+01 0.560951937328D-08 0.267001188359D+01
   -0.307336449623D-06 0.999709405005D-02 0.684522092342D-05 0.515356779099D+04
    0.467984000000D+06-0.819563865662D-07-0.396803797225D+00-0.160187482834D-06
    0.929312887441D+00 0.231656250000D+03 0.631350478762D+00-0.818855537191D-08
   -0.301083969927D-09 0.100000000000D+01 0.236800000000D+04 0.000000000000D+00
    0.200000000000D+01 0.000000000000D+00 0.651925802231D-08 0.770000000000D+02
    0.460825000000D+06 0.400000000000D+01 0.000000000000D+00 0.000000000000D+00
 1 25  5 30 10  0  0.0 0.276543200016D-03 0.117097442853D-10 0.000000000000D+00
    0.900000000000D+02 0.772187500000D+02 0.456126142342D-08-0.439848540794D+00
    0.387430191040D-05 0.547290546820D-03 0.229664146900D-05 0.515372247505D+04
    0.468000000000D+06 0.149011611938D-07 0.186625657795D+01 0.186264514923D-07
    0.959237688672D+00 0.335093750000D+03 0.195741318029D+00-0.832141804904D-08
   -0.235724104569D-10 0.100000000000D+01 0.236800000000D+04 0.000000000000D+00
    0.200000000000D+01 0.000000000000D+00-0.931322574616D-08 0.900000000000D+02
    0.467114000000D+06 0.400000000000D+01 0.000000000000D+00 0.000000000000D+00
 2 25  5 30 10  0  0.0-0.157676171511D-03 0.920863385545D-11 0.000000000000D+00
    0.890000000000D+02 0.901250000000D+02 0.448732977244D-08 0.126758118055D+01
    0.430829823017D-05 0.164069898892D-01 0.327825546265D-05 0.515370044136D+04
    0.468000000000D+06 0.322237610817D-06 0.170223714922D+01-0.216066837311D-06
    0.965375415601D+00 0.310125000000D+03-0.982294221183D+00-0.818926968738D-08
   -0.210723063176D-10 0.100000000000D+01 0.236800000000D+04 0.000000000000D+00
    0.200000000000D+01 0.000000000000D+00-0.176951289177D-07 0.890000000000D+02
    0.467088000000D+06 0.400000000000D+01 0.000000000000D+00 0.000000000000D+00
 3 25  5 30 10  0  0.0 0.692589674145D-03 0.795807864051D-12 0.000000000000D+00
    0.110000000000D+02-0.970312500000D+02 0.369765402213D-08-0.234678061235D+01
   -0.497139990330D-05 0.628604297526D-02 0.288523733616D-05 0.515377562332D+04
    0.468000000000D+06 0.540167093277D-07 0.284480542748D+01-0.875443220139D-07
    0.990005490594D+00 0.338843750000D+03 0.116570478851D+01-0.776175187955D-08
   -0.130362572982D-09 0.100000000000D+01 0.236800000000D+04 0.000000000000D+00
    0.200000000000D+01 0.000000000000D+00 0.139698386192D-08 0.110000000000D+02
    0.460818000000D+06 0.400000000000D+01 0.000000000000D+00 0.000000000000D+00
 4 25  5 30 10  0  0.0 0.572701450437D-03 0.454747350886D-11 0.000000000000D+00
    0.180000000000D+02-0.800312500000D+02 0.399552357245D-08 0.563003589782D+00
   -0.414252281189D-05 0.326695293188D-02 0.978074967861D-05 0.515362477303D+04
    0.468000000000D+06 0.614672899246D-07-0.236439095101D+01 0.108033418655D-06
    0.967949557476D+00 0.196218750000D+03-0.290675619139D+01-0.769389191005D-08
    0.393944980818D-09 0.100000000000D+01 0.236800000000D+04 0.000000000000D+00
    0.200000000000D+01 0.000000000000D+00-0.465661287308D-08 0.786000000000D+03
    0.460818000000D+06 0.400000000000D+01 0.000000000000D+00 0.000000000000D+00
 5 25  5 30 10  0  0.0-0.211171805859D-03-0.102318153950D-11 0.000000000000D+00
    0.190000000000D+02-0.967187500000D+02 0.417053086221D-08 0.117788118526D+01
   -0.510923564434D-05 0.576938572340D-02 0.287964940071D-05 0.515356846809D+04
    0.468000000000D+06-0.875443220139D-07 0.278870802703D+01-0.782310962677D-07
    0.976743828067D+00 0.336812500000D+03 0.135987455216D+01-0.822462830307D-08
   -0.227866634417D-09 0.100000000000D+01 0.236800000000D+04 0.000000000000D+00
    0.200000000000D+01 0.000000000000D+00-0.107102096081D-07 0.190000000000D+02
    0.460818000000D+06 0.400000000000D+01 0.000000000000D+00 0.000000000000D+00
 6 25  5 30 10  0  0.0-0.382538884878D-03-0.183035808732D-10 0.000000000000D+00
    0.630000000000D+02 0.799687500000D+02 0.393837833498D-08-0.110870304575D+01
    0.423379242420D-05 0.335826026276D-02 0.227242708206D-05 0.515357802200D+04
    0.468000000000D+06-0.521540641785D-07 0.180895667785D+01 0.372529029846D-07
    0.988442195854D+00 0.352437500000D+03-0.641722360209D+00-0.801497671309D-08
    0.689314426998D-10 0.100000000000D+01 0.236800000000D+04 0.000000000000D+00
    0.200000000000D+01 0.000000000000D+00 0.372529029846D-08 0.630000000000D+02
    0.460818000000D+06 0.400000000000D+01 0.000000000000D+00 0.000000000000D+00
